start=new Date('2022-01-19T00:00:00.000Z').valueOf();
sats=[{"ELEMENT_SET_NO":"999","OBJECT_ID":"2020-074BE","PERIAPSIS":"545.997","TLE_LINE2":"2 46791  53.0533 263.9402 0001829  64.7561 295.3618 15.06383662 68966","BSTAR":"-0.00007726200000","COUNTRY_CODE":"US","SITE":"AFETR","GP_ID":"194153942","MEAN_ELEMENT_THEORY":"SGP4","SEMIMAJOR_AXIS":"6925.399","FILE":"3276875","CLASSIFICATION_TYPE":"U","NORAD_CAT_ID":"46791","LAUNCH_DATE":"2020-10-24","ECCENTRICITY":"0.00018290","RA_OF_ASC_NODE":"263.9402","DECAY_DATE":null,"MEAN_ANOMALY":"295.3618","OBJECT_TYPE":"PAYLOAD","EPHEMERIS_TYPE":"0","MEAN_MOTION":"15.06383662","OBJECT_NAME":"STARLINK-1933","INCLINATION":"53.0533","MEAN_MOTION_DOT":"-0.00001432","ARG_OF_PERICENTER":"64.7561","PERIOD":"95.593","APOAPSIS":"548.530","EPOCH":"2022-01-18T20:55:47.212608","REV_AT_EPOCH":"6896","TLE_LINE1":"1 46791U 20074BE  22018.87207422 -.00001432  00000-0 -77262-4 0  9995","MEAN_MOTION_DDOT":"0.0000000000000","CENTER_NAME":"EARTH","TIME_SYSTEM":"UTC","REF_FRAME":"TEME","RCS_SIZE":"LARGE"},{"REF_FRAME":"TEME","MEAN_MOTION_DDOT":"0.0000000000000","TIME_SYSTEM":"UTC","CENTER_NAME":"EARTH","RCS_SIZE":"LARGE","TLE_LINE1":"1 46792U 20074BF  22018.89880837 -.00001257  00000-0 -65548-4 0  9994","EPOCH":"2022-01-18T21:34:17.043168","REV_AT_EPOCH":"6910","MEAN_MOTION_DOT":"-0.00001257","INCLINATION":"53.0534","APOAPSIS":"548.598","ARG_OF_PERICENTER":"72.1052","PERIOD":"95.594","OBJECT_TYPE":"PAYLOAD","OBJECT_NAME":"STARLINK-1934","MEAN_MOTION":"15.06376065","EPHEMERIS_TYPE":"0","MEAN_ANOMALY":"288.0144","DECAY_DATE":null,"LAUNCH_DATE":"2020-10-24","ECCENTRICITY":"0.00018930","RA_OF_ASC_NODE":"253.8193","CLASSIFICATION_TYPE":"U","NORAD_CAT_ID":"46792","FILE":"3276875","SEMIMAJOR_AXIS":"6925.422","COUNTRY_CODE":"US","MEAN_ELEMENT_THEORY":"SGP4","SITE":"AFETR","GP_ID":"194154193","TLE_LINE2":"2 46792  53.0534 253.8193 0001893  72.1052 288.0144 15.06376065 69101","PERIAPSIS":"545.976","BSTAR":"-0.00006554800000","ELEMENT_SET_NO":"999","OBJECT_ID":"2020-074BF"},{"COUNTRY_CODE":"US","MEAN_ELEMENT_THEORY":"SGP4","SITE":"AFETR","GP_ID":"194154938","SEMIMAJOR_AXIS":"6925.419","ELEMENT_SET_NO":"999","OBJECT_ID":"2020-074BG","TLE_LINE2":"2 46793  53.0547 263.9990 0001853  69.9237 290.1951 15.06376917 68956","PERIAPSIS":"546.001","BSTAR":"-0.00014310000000","LAUNCH_DATE":"2020-10-24","ECCENTRICITY":"0.00018530","RA_OF_ASC_NODE":"263.9990","FILE":"3276875","CLASSIFICATION_TYPE":"U","NORAD_CAT_ID":"46793","MEAN_MOTION_DOT":"-0.00002411","INCLINATION":"53.0547","APOAPSIS":"548.568","ARG_OF_PERICENTER":"69.9237","PERIOD":"95.594","EPOCH":"2022-01-18T20:39:52.749216","REV_AT_EPOCH":"6895","DECAY_DATE":null,"MEAN_ANOMALY":"290.1951","OBJECT_TYPE":"PAYLOAD","OBJECT_NAME":"STARLINK-1941","EPHEMERIS_TYPE":"0","MEAN_MOTION":"15.06376917","REF_FRAME":"TEME","TIME_SYSTEM":"UTC","MEAN_MOTION_DDOT":"0.0000000000000","CENTER_NAME":"EARTH","RCS_SIZE":"LARGE","TLE_LINE1":"1 46793U 20074BG  22018.86102719 -.00002411  00000-0 -14310-3 0  9991"},{"TLE_LINE1":"1 46794U 20074BH  22018.86839486 -.00001669  00000-0 -93250-4 0  9995","TIME_SYSTEM":"UTC","MEAN_MOTION_DDOT":"0.0000000000000","CENTER_NAME":"EARTH","REF_FRAME":"TEME","RCS_SIZE":"LARGE","OBJECT_TYPE":"PAYLOAD","EPHEMERIS_TYPE":"0","MEAN_MOTION":"15.06372379","OBJECT_NAME":"STARLINK-1942","DECAY_DATE":null,"MEAN_ANOMALY":"296.3782","EPOCH":"2022-01-18T20:50:29.315904","REV_AT_EPOCH":"6896","INCLINATION":"53.0538","MEAN_MOTION_DOT":"-0.00001669","ARG_OF_PERICENTER":"63.7394","PERIOD":"95.594","APOAPSIS":"548.560","CLASSIFICATION_TYPE":"U","NORAD_CAT_ID":"46794","FILE":"3276875","ECCENTRICITY":"0.00018220","LAUNCH_DATE":"2020-10-24","RA_OF_ASC_NODE":"263.9659","PERIAPSIS":"546.036","TLE_LINE2":"2 46794  53.0538 263.9659 0001822  63.7394 296.3782 15.06372379 68960","BSTAR":"-0.00009325000000","ELEMENT_SET_NO":"999","OBJECT_ID":"2020-074BH","SEMIMAJOR_AXIS":"6925.433","COUNTRY_CODE":"US","GP_ID":"194155673","SITE":"AFETR","MEAN_ELEMENT_THEORY":"SGP4"},{"TLE_LINE1":"1 46796U 20074BK  22018.84350224 -.00000700  00000-0 -28117-4 0  9998","REF_FRAME":"TEME","MEAN_MOTION_DDOT":"0.0000000000000","TIME_SYSTEM":"UTC","CENTER_NAME":"EARTH","RCS_SIZE":"LARGE","OBJECT_TYPE":"PAYLOAD","OBJECT_NAME":"STARLINK-1944","MEAN_MOTION":"15.06389276","EPHEMERIS_TYPE":"0","MEAN_ANOMALY":"292.3272","DECAY_DATE":null,"EPOCH":"2022-01-18T20:14:38.593536","REV_AT_EPOCH":"6909","MEAN_MOTION_DOT":"-0.00000700","INCLINATION":"53.0550","APOAPSIS":"548.448","PERIOD":"95.593","ARG_OF_PERICENTER":"67.7901","CLASSIFICATION_TYPE":"U","NORAD_CAT_ID":"46796","FILE":"3276875","LAUNCH_DATE":"2020-10-24","ECCENTRICITY":"0.00017350","RA_OF_ASC_NODE":"254.0742","TLE_LINE2":"2 46796  53.0550 254.0742 0001735  67.7901 292.3272 15.06389276 69090","PERIAPSIS":"546.045","BSTAR":"-0.00002811700000","ELEMENT_SET_NO":"999","OBJECT_ID":"2020-074BK","SEMIMAJOR_AXIS":"6925.381","COUNTRY_CODE":"US","MEAN_ELEMENT_THEORY":"SGP4","GP_ID":"194154443","SITE":"AFETR"},{"EPHEMERIS_TYPE":"0","MEAN_MOTION":"15.63735436","OBJECT_NAME":"STARLINK-1947","OBJECT_TYPE":"PAYLOAD","DECAY_DATE":null,"MEAN_ANOMALY":"236.7272","REV_AT_EPOCH":"6989","EPOCH":"2022-01-18T17:50:23.187552","PERIOD":"92.087","ARG_OF_PERICENTER":"123.3861","APOAPSIS":"377.719","INCLINATION":"53.0524","MEAN_MOTION_DOT":"0.00206521","TLE_LINE1":"1 46797U 20074BL  22018.74332393  .00206521  00000-0  21213-2 0  9990","RCS_SIZE":"LARGE","MEAN_MOTION_DDOT":"0.0000000000000","TIME_SYSTEM":"UTC","CENTER_NAME":"EARTH","REF_FRAME":"TEME","BSTAR":"0.00212130000000","PERIAPSIS":"376.041","TLE_LINE2":"2 46797  53.0524 197.2925 0001242 123.3861 236.7272 15.63735436 69896","OBJECT_ID":"2020-074BL","ELEMENT_SET_NO":"999","SEMIMAJOR_AXIS":"6755.015","SITE":"AFETR","GP_ID":"194154694","MEAN_ELEMENT_THEORY":"SGP4","COUNTRY_CODE":"US","NORAD_CAT_ID":"46797","CLASSIFICATION_TYPE":"U","FILE":"3276875","RA_OF_ASC_NODE":"197.2925","LAUNCH_DATE":"2020-10-24","ECCENTRICITY":"0.00012420"},{"BSTAR":"0.00000695380000","PERIAPSIS":"546.275","TLE_LINE2":"2 46798  53.0540 278.9351 0001479  68.5580 291.5567 15.06372183 68758","OBJECT_ID":"2020-074BM","ELEMENT_SET_NO":"999","SEMIMAJOR_AXIS":"6925.434","GP_ID":"194155439","SITE":"AFETR","MEAN_ELEMENT_THEORY":"SGP4","COUNTRY_CODE":"US","NORAD_CAT_ID":"46798","CLASSIFICATION_TYPE":"U","FILE":"3276875","RA_OF_ASC_NODE":"278.9351","ECCENTRICITY":"0.00014790","LAUNCH_DATE":"2020-10-24","MEAN_MOTION":"15.06372183","EPHEMERIS_TYPE":"0","OBJECT_NAME":"STARLINK-1948","OBJECT_TYPE":"PAYLOAD","DECAY_DATE":null,"MEAN_ANOMALY":"291.5567","REV_AT_EPOCH":"6875","EPOCH":"2022-01-18T21:00:24.316416","ARG_OF_PERICENTER":"68.5580","PERIOD":"95.594","APOAPSIS":"548.323","INCLINATION":"53.0540","MEAN_MOTION_DOT":"-0.00000178","TLE_LINE1":"1 46798U 20074BM  22018.87528144 -.00000178  00000-0  69538-5 0  9992","RCS_SIZE":"LARGE","MEAN_MOTION_DDOT":"0.0000000000000","CENTER_NAME":"EARTH","TIME_SYSTEM":"UTC","REF_FRAME":"TEME"},{"FILE":"3276875","NORAD_CAT_ID":"47122","CLASSIFICATION_TYPE":"U","RA_OF_ASC_NODE":"243.8293","LAUNCH_DATE":"2020-11-25","ECCENTRICITY":"0.00022920","OBJECT_ID":"2020-088A","ELEMENT_SET_NO":"999","BSTAR":"0.00004490300000","TLE_LINE2":"2 47122  53.0533 243.8293 0002292  72.7808 287.3432 15.06393008 64122","PERIAPSIS":"545.648","MEAN_ELEMENT_THEORY":"SGP4","SITE":"AFETR","GP_ID":"194155711","COUNTRY_CODE":"US","SEMIMAJOR_AXIS":"6925.370","TLE_LINE1":"1 47122U 20088A   22018.89602317  .00000387  00000-0  44903-4 0  9995","RCS_SIZE":"LARGE","REF_FRAME":"TEME","CENTER_NAME":"EARTH","MEAN_MOTION_DDOT":"0.0000000000000","TIME_SYSTEM":"UTC","DECAY_DATE":null,"MEAN_ANOMALY":"287.3432","OBJECT_NAME":"STARLINK-1777","EPHEMERIS_TYPE":"0","MEAN_MOTION":"15.06393008","OBJECT_TYPE":"PAYLOAD","APOAPSIS":"548.822","PERIOD":"95.593","ARG_OF_PERICENTER":"72.7808","MEAN_MOTION_DOT":"0.00000387","INCLINATION":"53.0533","REV_AT_EPOCH":"6412","EPOCH":"2022-01-18T21:30:16.401888"},{"TLE_LINE1":"1 47124U 20088C   22018.88173769 -.00001412  00000-0 -75983-4 0  9994","REF_FRAME":"TEME","MEAN_MOTION_DDOT":"0.0000000000000","TIME_SYSTEM":"UTC","CENTER_NAME":"EARTH","RCS_SIZE":"LARGE","DECAY_DATE":null,"MEAN_ANOMALY":"291.0449","OBJECT_TYPE":"PAYLOAD","OBJECT_NAME":"STARLINK-1785","MEAN_MOTION":"15.06374580","EPHEMERIS_TYPE":"0","MEAN_MOTION_DOT":"-0.00001412","INCLINATION":"53.0538","APOAPSIS":"548.685","PERIOD":"95.594","ARG_OF_PERICENTER":"69.0755","EPOCH":"2022-01-18T21:09:42.136416","REV_AT_EPOCH":"6405","FILE":"3276875","CLASSIFICATION_TYPE":"U","NORAD_CAT_ID":"47124","ECCENTRICITY":"0.00020120","LAUNCH_DATE":"2020-11-25","RA_OF_ASC_NODE":"248.9076","ELEMENT_SET_NO":"999","OBJECT_ID":"2020-088C","TLE_LINE2":"2 47124  53.0538 248.9076 0002012  69.0755 291.0449 15.06374580 64050","PERIAPSIS":"545.898","BSTAR":"-0.00007598300000","COUNTRY_CODE":"US","MEAN_ELEMENT_THEORY":"SGP4","SITE":"AFETR","GP_ID":"194154481","SEMIMAJOR_AXIS":"6925.426"},{"CENTER_NAME":"EARTH","MEAN_MOTION_DDOT":"0.0000000000000","TIME_SYSTEM":"UTC","REF_FRAME":"TEME","RCS_SIZE":"LARGE","TLE_LINE1":"1 47126U 20088E   22018.85548994 -.00001545  00000-0 -84859-4 0  9998","INCLINATION":"53.0534","MEAN_MOTION_DOT":"-0.00001545","PERIOD":"95.593","ARG_OF_PERICENTER":"65.9988","APOAPSIS":"548.865","EPOCH":"2022-01-18T20:31:54.330816","REV_AT_EPOCH":"6412","MEAN_ANOMALY":"294.1243","DECAY_DATE":null,"OBJECT_TYPE":"PAYLOAD","MEAN_MOTION":"15.06384303","EPHEMERIS_TYPE":"0","OBJECT_NAME":"STARLINK-1812","LAUNCH_DATE":"2020-11-25","ECCENTRICITY":"0.00023150","RA_OF_ASC_NODE":"244.0161","FILE":"3276875","CLASSIFICATION_TYPE":"U","NORAD_CAT_ID":"47126","COUNTRY_CODE":"US","GP_ID":"194154732","SITE":"AFETR","MEAN_ELEMENT_THEORY":"SGP4","SEMIMAJOR_AXIS":"6925.397","ELEMENT_SET_NO":"999","OBJECT_ID":"2020-088E","PERIAPSIS":"545.658","TLE_LINE2":"2 47126  53.0534 244.0161 0002315  65.9988 294.1243 15.06384303 64127","BSTAR":"-0.00008485900000"}];
